[{"OBJECT_NAME":"GHGSAT-C4","OBJECT_ID":"2022-057Q","EPOCH":"2026-03-09T22:58:28.655904","MEAN_MOTION":15.3293316,"ECCENTRICITY":0.0007552,"INCLINATION":97.6357,"RA_OF_ASC_NODE":210.0193,"ARG_OF_PERICENTER":100.0033,"MEAN_ANOMALY":260.2061,"EPHEMERIS_TYPE":0,"CLASSIFICATION_TYPE":"U","NORAD_CAT_ID":52746,"ELEMENT_SET_NO":999,"REV_AT_EPOCH":21033,"BSTAR":0.00030289005,"MEAN_MOTION_DOT":9.562e-5,"MEAN_MOTION_DDOT":0},{"OBJECT_NAME":"STARLINK-34625","OBJECT_ID":"2025-240J","EPOCH":"2026-03-09T06:36:09.397728","MEAN_MOTION":15.30195583,"ECCENTRICITY":0.00011491,"INCLINATION":53.159,"RA_OF_ASC_NODE":64.8322,"ARG_OF_PERICENTER":73.3592,"MEAN_ANOMALY":286.7535,"EPHEMERIS_TYPE":0,"CLASSIFICATION_TYPE":"U","NORAD_CAT_ID":66154,"ELEMENT_SET_NO":999,"REV_AT_EPOCH":2197,"BSTAR":0.00096644027,"MEAN_MOTION_DOT":0.00028369,"MEAN_MOTION_DDOT":0}]
